{"type": "FeatureCollection", "features": [ {"type": "Feature", "properties": {"norad_id": 66796, "name": "STARLINK-35964", "group": "last-30-days", "lat": -17.421514776398826, "lon": 69.65981166077826, "alt_km": 314.67887634966246, "timestamp": "2025-12-16T03:53:25.816761+00:00", "meta": {"OBJECT_NAME": "STARLINK-35964", "OBJECT_ID": "2025-278F", "EPOCH": "2025-12-15T08:00:01.999872", "MEAN_MOTION": 15.89788163, "ECCENTRICITY": 0.00014656, "INCLINATION": 42.9941, "RA_OF_ASC_NODE": 235.1006, "ARG_OF_PERICENTER": 267.3553, "MEAN_ANOMALY": 235.6664, "EPHEMERIS_TYPE": 0, "CLASSIFICATION_TYPE": "U", "NORAD_CAT_ID": 66796, "ELEMENT_SET_NO": 999, "REV_AT_EPOCH": 321, "BSTAR": -0.0084494917, "MEAN_MOTION_DOT": -0.0222355, "MEAN_MOTION_DDOT": 0}, "tle": {"line1": "1 66796U 25278F   25349.33335648 -.02223550  00000+0 -84495-2 0  9998", "line2": "2 66796  42.9941 235.1006 0001465 267.3553 235.6664 15.89788163  3213"}}, "geometry": {"type": "Point", "coordinates": [69.65981166077826, -17.421514776398826]}}, {"type": "Feature", "properties": {"norad_id": 66797, "name": "STARLINK-36099", "group": "last-30-days", "lat": 36.73711922002005, "lon": -2.1195841923303207, "alt_km": 332.6787708830825, "timestamp": "2025-12-16T03:53:25.816771+00:00", "meta": {"OBJECT_NAME": "STARLINK-36099", "OBJECT_ID": "2025-278G", "EPOCH": "2025-12-15T08:00:01.999872", "MEAN_MOTION": 15.79993824, "ECCENTRICITY": 0.00017705, "INCLINATION": 42.9974, "RA_OF_ASC_NODE": 236.169, "ARG_OF_PERICENTER": 278.0002, "MEAN_ANOMALY": 164.4788, "EPHEMERIS_TYPE": 0, "CLASSIFICATION_TYPE": "U", "NORAD_CAT_ID": 66797, "ELEMENT_SET_NO": 999, "REV_AT_EPOCH": 343, "BSTAR": -0.0077187071, "MEAN_MOTION_DOT": -0.01301146, "MEAN_MOTION_DDOT": 0}, "tle": {"line1": "1 66797U 25278G   25349.33335648 -.01301146  00000+0 -77187-2 0  9996", "line2": "2 66797  42.9974 236.1690 0001770 278.0002 164.4788 15.79993824  3438"}}, "geometry": {"type": "Point", "coordinates": [-2.1195841923303207, 36.73711922002005]}}, {"type": "Feature", "properties": {"norad_id": 66798, "name": "STARLINK-36041", "group": "last-30-days", "lat": 35.880123952722215, "lon": 0.18130067231187033, "alt_km": 332.8898115075017, "timestamp": "2025-12-16T03:53:25.816781+00:00", "meta": {"OBJECT_NAME": "STARLINK-36041", "OBJECT_ID": "2025-278H", "EPOCH": "2025-12-15T08:00:01.999872", "MEAN_MOTION": 15.79973735, "ECCENTRICITY": 0.00018362, "INCLINATION": 42.9978, "RA_OF_ASC_NODE": 236.1638, "ARG_OF_PERICENTER": 278.1033, "MEAN_ANOMALY": 166.4732, "EPHEMERIS_TYPE": 0, "CLASSIFICATION_TYPE": "U", "NORAD_CAT_ID": 66798, "ELEMENT_SET_NO": 999, "REV_AT_EPOCH": 321, "BSTAR": -0.007708762, "MEAN_MOTION_DOT": -0.01298656, "MEAN_MOTION_DDOT": 0}, "tle": {"line1": "1 66798U 25278H   25349.33335648 -.01298656  00000+0 -77088-2 0  9998", "line2": "2 66798  42.9978 236.1638 0001836 278.1033 166.4732 15.79973735  3219"}}, "geometry": {"type": "Point", "coordinates": [0.18130067231187033, 35.880123952722215]}}, {"type": "Feature", "properties": {"norad_id": 66799, "name": "STARLINK-36044", "group": "last-30-days", "lat": 34.954691609462714, "lon": 2.4906431607034727, "alt_km": 333.0376755037987, "timestamp": "2025-12-16T03:53:25.816791+00:00", "meta": {"OBJECT_NAME": "STARLINK-36044", "OBJECT_ID": "2025-278J", "EPOCH": "2025-12-15T08:00:01.999872", "MEAN_MOTION": 15.79945563, "ECCENTRICITY": 0.00017031, "INCLINATION": 42.9974, "RA_OF_ASC_NODE": 236.1581, "ARG_OF_PERICENTER": 272.3349, "MEAN_ANOMALY": 174.4757, "EPHEMERIS_TYPE": 0, "CLASSIFICATION_TYPE": "U", "NORAD_CAT_ID": 66799, "ELEMENT_SET_NO": 999, "REV_AT_EPOCH": 337, "BSTAR": -0.0078275294, "MEAN_MOTION_DOT": -0.01339268, "MEAN_MOTION_DDOT": 0}, "tle": {"line1": "1 66799U 25278J   25349.33335648 -.01339268  00000+0 -78275-2 0  9993", "line2": "2 66799  42.9974 236.1581 0001703 272.3349 174.4757 15.79945563  3373"}}, "geometry": {"type": "Point", "coordinates": [2.4906431607034727, 34.954691609462714]}}, {"type": "Feature", "properties": {"norad_id": 66800, "name": "STARLINK-35996", "group": "last-30-days", "lat": 32.96908456235739, "lon": 6.971356152628765, "alt_km": 333.6893718856463, "timestamp": "2025-12-16T03:53:25.816801+00:00", "meta": {"OBJECT_NAME": "STARLINK-35996", "OBJECT_ID": "2025-278K", "EPOCH": "2025-12-15T08:00:01.999872", "MEAN_MOTION": 15.79877324, "ECCENTRICITY": 0.00017733, "INCLINATION": 42.9975, "RA_OF_ASC_NODE": 236.1466, "ARG_OF_PERICENTER": 278.1483, "MEAN_ANOMALY": 173.1131, "EPHEMERIS_TYPE": 0, "CLASSIFICATION_TYPE": "U", "NORAD_CAT_ID": 66800, "ELEMENT_SET_NO": 999, "REV_AT_EPOCH": 316, "BSTAR": -0.007923717, "MEAN_MOTION_DOT": -0.013502, "MEAN_MOTION_DDOT": 0}, "tle": {"line1": "1 66800U 25278K   25349.33335648 -.01350200  00000+0 -79237-2 0  9994", "line2": "2 66800  42.9975 236.1466 0001773 278.1483 173.1131 15.79877324  3167"}}, "geometry": {"type": "Point", "coordinates": [6.971356152628765, 32.96908456235739]}}, {"type": "Feature", "properties": {"norad_id": 66801, "name": "STARLINK-36080", "group": "last-30-days", "lat": 27.351035846053612, "lon": 17.342285583605694, "alt_km": 334.94272364198514, "timestamp": "2025-12-16T03:53:25.816817+00:00", "meta": {"OBJECT_NAME": "STARLINK-36080", "OBJECT_ID": "2025-278L", "EPOCH": "2025-12-15T06:00:04.999968", "MEAN_MOTION": 15.79925174, "ECCENTRICITY": 0.00018929, "INCLINATION": 42.997, "RA_OF_ASC_NODE": 236.6283, "ARG_OF_PERICENTER": 276.2093, "MEAN_ANOMALY": 71.8154, "EPHEMERIS_TYPE": 0, "CLASSIFICATION_TYPE": "U", "NORAD_CAT_ID": 66801, "ELEMENT_SET_NO": 999, "REV_AT_EPOCH": 336, "BSTAR": -0.0077893531, "MEAN_MOTION_DOT": -0.01332409, "MEAN_MOTION_DDOT": 0}, "tle": {"line1": "1 66801U 25278L   25349.25005787 -.01332409  00000+0 -77894-2 0  9992", "line2": "2 66801  42.9970 236.6283 0001892 276.2093  71.8154 15.79925174  3361"}}, "geometry": {"type": "Point", "coordinates": [17.342285583605694, 27.351035846053612]}}, {"type": "Feature", "properties": {"norad_id": 66802, "name": "STARLINK-35604", "group": "last-30-days", "lat": 33.968621182535436, "lon": 4.789040097462468, "alt_km": 333.1053707394585, "timestamp": "2025-12-16T03:53:25.816842+00:00", "meta": {"OBJECT_NAME": "STARLINK-35604", "OBJECT_ID": "2025-278M", "EPOCH": "2025-12-15T06:00:04.999968", "MEAN_MOTION": 15.80136489, "ECCENTRICITY": 0.00018552, "INCLINATION": 42.9973, "RA_OF_ASC_NODE": 236.6631, "ARG_OF_PERICENTER": 269.2656, "MEAN_ANOMALY": 65.2817, "EPHEMERIS_TYPE": 0, "CLASSIFICATION_TYPE": "U", "NORAD_CAT_ID": 66802, "ELEMENT_SET_NO": 999, "REV_AT_EPOCH": 336, "BSTAR": -0.0074906527, "MEAN_MOTION_DOT": -0.01274754, "MEAN_MOTION_DDOT": 0}, "tle": {"line1": "1 66802U 25278M   25349.25005787 -.01274754  00000+0 -74907-2 0  9993", "line2": "2 66802  42.9973 236.6631 0001855 269.2656  65.2817 15.80136489  3366"}}, "geometry": {"type": "Point", "coordinates": [4.789040097462468, 33.968621182535436]}}, {"type": "Feature", "properties": {"norad_id": 66803, "name": "STARLINK-35565", "group": "last-30-days", "lat": 31.898882444510818, "lon": 9.172166764260169, "alt_km": 333.7964973529015, "timestamp": "2025-12-16T03:53:25.816853+00:00", "meta": {"OBJECT_NAME": "STARLINK-35565", "OBJECT_ID": "2025-278N", "EPOCH": "2025-12-15T06:00:04.999968", "MEAN_MOTION": 15.80066978, "ECCENTRICITY": 0.00018792, "INCLINATION": 42.9972, "RA_OF_ASC_NODE": 236.6516, "ARG_OF_PERICENTER": 279.9845, "MEAN_ANOMALY": 59.0344, "EPHEMERIS_TYPE": 0, "CLASSIFICATION_TYPE": "U", "NORAD_CAT_ID": 66803, "ELEMENT_SET_NO": 999, "REV_AT_EPOCH": 345, "BSTAR": -0.007557847, "MEAN_MOTION_DOT": -0.01281183, "MEAN_MOTION_DDOT": 0}, "tle": {"line1": "1 66803U 25278N   25349.25005787 -.01281183  00000+0 -75578-2 0  9993", "line2": "2 66803  42.9972 236.6516 0001879 279.9845  59.0344 15.80066978  3453"}}, "geometry": {"type": "Point", "coordinates": [9.172166764260169, 31.898882444510818]}}, {"type": "Feature", "properties": {"norad_id": 66804, "name": "STARLINK-36038", "group": "last-30-days", "lat": 30.780131211249028, "lon": 11.342851255983534, "alt_km": 334.0258975406023, "timestamp": "2025-12-16T03:53:25.816863+00:00", "meta": {"OBJECT_NAME": "STARLINK-36038", "OBJECT_ID": "2025-278P", "EPOCH": "2025-12-15T06:00:04.999968", "MEAN_MOTION": 15.80021852, "ECCENTRICITY": 0.00018309, "INCLINATION": 42.9974, "RA_OF_ASC_NODE": 236.6459, "ARG_OF_PERICENTER": 271.1777, "MEAN_ANOMALY": 70.2283, "EPHEMERIS_TYPE": 0, "CLASSIFICATION_TYPE": "U", "NORAD_CAT_ID": 66804, "ELEMENT_SET_NO": 999, "REV_AT_EPOCH": 336, "BSTAR": -0.0076977731, "MEAN_MOTION_DOT": -0.01299571, "MEAN_MOTION_DDOT": 0}, "tle": {"line1": "1 66804U 25278P   25349.25005787 -.01299571  00000+0 -76978-2 0  9999", "line2": "2 66804  42.9974 236.6459 0001830 271.1777  70.2283 15.80021852  3366"}}, "geometry": {"type": "Point", "coordinates": [11.342851255983534, 30.780131211249028]}}, {"type": "Feature", "properties": {"norad_id": 66805, "name": "STARLINK-36049", "group": "last-30-days", "lat": 28.522536218773787, "lon": 15.389092302424642, "alt_km": 334.707900076236, "timestamp": "2025-12-16T03:53:25.816874+00:00", "meta": {"OBJECT_NAME": "STARLINK-36049", "OBJECT_ID": "2025-278Q", "EPOCH": "2025-12-15T06:00:04.999968", "MEAN_MOTION": 15.79957121, "ECCENTRICITY": 0.00018712, "INCLINATION": 42.9974, "RA_OF_ASC_NODE": 236.6345, "ARG_OF_PERICENTER": 280.5177, "MEAN_ANOMALY": 65.2837, "EPHEMERIS_TYPE": 0, "CLASSIFICATION_TYPE": "U", "NORAD_CAT_ID": 66805, "ELEMENT_SET_NO": 999, "REV_AT_EPOCH": 336, "BSTAR": -0.0077270734, "MEAN_MOTION_DOT": -0.01300506, "MEAN_MOTION_DDOT": 0}, "tle": {"line1": "1 66805U 25278Q   25349.25005787 -.01300506  00000+0 -77271-2 0  9998", "line2": "2 66805  42.9974 236.6345 0001871 280.5177  65.2837 15.79957121  3368"}}, "geometry": {"type": "Point", "coordinates": [15.389092302424642, 28.522536218773787]}}]}